CAS-2T & KS-1Q          
1 41847U 16066G   20258.75238879  .00000010  00000-0  12692-4 0  9994
2 41847  98.6455 310.1241 0364926 322.9600  34.6892 14.38090153202254
NAYIF-1 (EO-88)         
1 42017U 17008BX  20258.75851811  .00001122  00000-0  45425-4 0  9993
2 42017  97.3527 324.9943 0006509  22.2028 337.9491 15.26725693199178
MAX VALIER SAT          
1 42778U 17036P   20258.71547962  .00000714  00000-0  33454-4 0  9998
2 42778  97.2968 309.8476 0013808  71.6990 288.5748 15.22760257179310
RADFXSAT (FOX-1B)       
1 43017U 17073E   20258.69523671  .00000356  00000-0  32561-4 0  9994
2 43017  97.7160 167.4706 0257963 119.3925 243.3309 14.79012440152352
FOX-1D (AO-92)          
1 43137U 18004AC  20258.76869403  .00000833  00000-0  36994-4 0  9990
2 43137  97.4392 329.3012 0010814 100.6533 259.5922 15.24277153148651
DIWATA-2B               
1 43678U 18084H   20258.82681258  .00000096  00000-0  15292-4 0  9994
2 43678  97.8933  17.2764 0008618 237.0418 122.9989 14.91649536102342
ES'HAIL 2               
1 43700U 18090A   20258.71454907  .00000134  00000-0  00000-0 0  9994
2 43700   0.0103 158.1179 0001840  44.2167  74.8426  1.00271271  6849
FOX-1CLIFF (AO-95)      
1 43770U 18099N   20258.72690635  .00000153  00000-0  19201-4 0  9999
2 43770  97.6992 328.5234 0013161 257.4572 102.5177 14.95037356 97255
ITASAT 1                
1 43786U 18099AE  20258.77072253 -.00000123  00000-0 -59590-5 0  9996
2 43786  97.7012 329.0498 0013736 250.6697 109.3039 14.95372819 97286
JY1SAT (JO-97)          
1 43803U 18099AX  20258.77442001 -.00000208  00000-0 -13506-4 0  9998
2 43803  97.6971 328.8518 0013736 250.8730 109.1004 14.95558773 97284
PSAT2 (NO-104)          
1 44354U 19036R   20258.09828030  .00007397  00000-0  10372-3 0  9998
2 44354  28.5295 157.7989 0357653 178.7438 181.4114 15.05152211 67170
BRICSAT2 (NO-103)       
1 44355U 19036S   20258.08050027  .00013662  00000-0  18255-3 0  9991
2 44355  28.5302 143.9498 0330646 201.2964 157.3575 15.12040269 67328
JAISAT-1                
1 44419U 19038F   20258.84775431  .00000653  00000-0  40674-4 0  9998
2 44419  97.5476 219.4447 0021409 178.1529 181.9784 15.12909266 66115
DUCHIFAT-3              
1 44854U 19089C   20258.74779694  .00000208  00000-0  23201-4 0  9994
2 44854  36.9665 290.6212 0008302  57.4677 302.6868 14.99123719 41704
RS-44 & BREEZE-KM R/B   
1 44909U 19096E   20258.72141620  .00000044  00000-0  13106-3 0  9993
2 44909  82.5188 296.0037 0217672  18.1096 342.7605 12.79707995 33602
ORBITAL FACTORY 2 (OF-2)
1 45113U 19071C   20258.56925501  .00001432  00000-0  54810-4 0  9994
2 45113  51.6439 292.9672 0013184  20.7587 339.3928 15.33643317 34805
HUSKYSAT-1              
1 45119U 19071J   20258.53564753  .00000935  00000-0  39589-4 0  9998
2 45119  51.6435 292.7430 0012407  17.3044 342.8358 15.33837726 34797
